IRIDIUM 155             
1 43573U 18061E   25144.63998313  .00000156  00000+0  48524-4 0  9994
2 43573  86.4002 219.0028 0002567 100.0181 260.1304 14.34217997357667
IRIDIUM 154             
1 43574U 18061F   25144.90002965  .00000038  00000+0  65821-5 0  9993
2 43574  86.4006 219.0084 0002338  95.0527 265.0935 14.34217671357750
IRIDIUM 163             
1 43575U 18061G   25144.74146428  .00000020  00000+0  76875-7 0  9993
2 43575  86.4002 219.0022 0002211  98.8751 261.2695 14.34217682357707
IRIDIUM 156             
1 43576U 18061H   25144.71609536  .00000016  00000+0 -12512-5 0  9997
2 43576  86.4002 219.0197 0002680  97.3118 262.8383 14.34217562357698
IRIDIUM 164             
1 43577U 18061J   25144.90637264  .00000031  00000+0  39199-5 0  9994
2 43577  86.4005 218.9744 0002452  88.3624 271.7852 14.34217577357761
IRIDIUM 159             
1 43578U 18061K   25144.73512160  .00000046  00000+0  94605-5 0  9992
2 43578  86.4002 218.9908 0002104  91.2699 268.8738 14.34217824357709
IRIDIUM 180             
1 43922U 19002A   25144.59508026 -.00000009  00000+0 -10219-4 0  9990
2 43922  86.3983 156.0345 0002146  92.6347 267.5095 14.34217422333291
IRIDIUM 176             
1 43923U 19002B   25144.51965268  .00000359  00000+0  53017-4 0  9997
2 43923  86.6104 156.0617 0002530 106.4103 253.7393 14.72254182342062
IRIDIUM 168             
1 43924U 19002C   25144.51896965  .00000026  00000+0  23576-5 0  9994
2 43924  86.3981 156.1327 0002328  90.8665 269.2798 14.34217515333266
IRIDIUM 173             
1 43925U 19002D   25144.57605255  .00000057  00000+0  13243-4 0  9994
2 43925  86.3977 156.0138 0002295  94.8127 265.3331 14.34217773333256
IRIDIUM 169             
1 43926U 19002E   25144.85281744  .00000271  00000+0  82160-4 0  9991
2 43926  86.4263 187.4725 0003333 115.3791 244.7753 14.38611461334397
IRIDIUM 172             
1 43927U 19002F   25144.56970629  .00000151  00000+0  46901-4 0  9997
2 43927  86.3977 156.0231 0001997  91.2257 268.9167 14.34218985333268
IRIDIUM 175             
1 43928U 19002G   25144.85442612  .00000842  00000+0  12958-3 0  9997
2 43928  86.1483 109.7652 0003373  87.4964 272.6639 14.72232937342107
IRIDIUM 171             
1 43929U 19002H   25144.96929436  .00000094  00000+0  26326-4 0  9998
2 43929  86.3986 156.1194 0002610  85.0293 275.1200 14.34218008333313
IRIDIUM 170             
1 43930U 19002J   25144.52582946  .00000672  00000+0  10268-3 0  9992
2 43930  86.6101 156.0649 0002862  98.9660 261.1881 14.72254526342071
IRIDIUM 167             
1 43931U 19002K   25144.96295175  .00000045  00000+0  90037-5 0  9994
2 43931  86.3977 155.8780 0002818  89.7891 270.3628 14.34217740333311
IRIDIUM 181             
1 56726U 23068S   25144.72320086  .00000292  00000+0  80695-4 0  9993
2 56726  86.4530 219.0271 0002388  81.9294 278.2177 14.43307582106402
IRIDIUM 177             
1 56727U 23068T   25144.88375273  .00000476  00000+0  59096-4 0  9994
2 56727  86.1972 153.1879 0002724  87.5598 272.5935 14.80230049108927
IRIDIUM 174             
1 56728U 23068U   25144.58145128  .00000381  00000+0  56568-4 0  9992
2 56728  86.6111 156.1483 0002072  97.2897 262.8555 14.72272060108849
IRIDIUM 178             
1 56729U 23068V   25144.67003720  .00001015  00000+0  13019-3 0  9992
2 56729  86.6619 187.6417 0003169  76.4054 283.7521 14.80220468108895
IRIDIUM 179             
1 56730U 23068W   25144.66467796  .00000916  00000+0  11717-3 0  9992
2 56730  86.6826 195.4447 0002501  95.4599 264.6908 14.80221265108894
